{
  "type": "FeatureCollection",
  "features": [
    {
      "type": "Feature",
      "properties": {
        "norad_id": 38250,
        "name": "BEIDOU-2 M3 (C11)",
        "group": "beidou",
        "lat": 54.474251526471996,
        "lon": 22.351254398639863,
        "alt_km": 21587.2871451891,
        "timestamp": "2025-12-17T19:34:08.303620+00:00",
        "meta_object_name": "BEIDOU-2 M3 (C11)",
        "meta_object_id": "2012-018A",
        "meta_epoch": "2025-12-17T03:50:10.570848",
        "meta_mean_motion": 1.86229929,
        "meta_eccentricity": 0.00242921,
        "meta_inclination": 55.916,
        "meta_ra_of_asc_node": 311.0083,
        "meta_arg_of_pericenter": 274.6123,
        "meta_mean_anomaly": 85.0955,
        "meta_ephemeris_type": 0,
        "meta_classification_type": "U",
        "meta_norad_cat_id": 38250,
        "meta_element_set_no": 999,
        "meta_rev_at_epoch": 9255,
        "meta_bstar": 0,
        "meta_mean_motion_dot": -9.2e-07,
        "meta_mean_motion_ddot": 0,
        "tle_line1": "1 38250U 12018A   25351.15984457 -.00000092  00000+0  00000+0 0  9999",
        "tle_line2": "2 38250  55.9160 311.0083 0024292 274.6123  85.0955  1.86229929 92557"
      },
      "geometry": {
        "type": "Point",
        "coordinates": [
          22.351254398639863,
          54.474251526471996
        ]
      }
    },
    {
      "type": "Feature",
      "properties": {
        "norad_id": 38251,
        "name": "BEIDOU-2 M4 (C12)",
        "group": "beidou",
        "lat": 42.77311847289673,
        "lon": 91.26838009804926,
        "alt_km": 21561.568324131564,
        "timestamp": "2025-12-17T19:34:08.303634+00:00",
        "meta_object_name": "BEIDOU-2 M4 (C12)",
        "meta_object_id": "2012-018B",
        "meta_epoch": "2025-12-17T02:12:20.700000",
        "meta_mean_motion": 1.86229502,
        "meta_eccentricity": 0.00154788,
        "meta_inclination": 55.8177,
        "meta_ra_of_asc_node": 310.2391,
        "meta_arg_of_pericenter": 277.6479,
        "meta_mean_anomaly": 82.1616,
        "meta_ephemeris_type": 0,
        "meta_classification_type": "U",
        "meta_norad_cat_id": 38251,
        "meta_element_set_no": 999,
        "meta_rev_at_epoch": 9255,
        "meta_bstar": 0,
        "meta_mean_motion_dot": -9.2e-07,
        "meta_mean_motion_ddot": 0,
        "tle_line1": "1 38251U 12018B   25351.09190625 -.00000092  00000+0  00000+0 0  9999",
        "tle_line2": "2 38251  55.8177 310.2391 0015478 277.6479  82.1616  1.86229502 92550"
      },
      "geometry": {
        "type": "Point",
        "coordinates": [
          91.26838009804926,
          42.77311847289673
        ]
      }
    },
    {
      "type": "Feature",
      "properties": {
        "norad_id": 38775,
        "name": "BEIDOU-2 M6 (C14)",
        "group": "beidou",
        "lat": -33.27952106284154,
        "lon": 43.063772316548395,
        "alt_km": 21503.592695384938,
        "timestamp": "2025-12-17T19:34:08.303646+00:00",
        "meta_object_name": "BEIDOU-2 M6 (C14)",
        "meta_object_id": "2012-050B",
        "meta_epoch": "2025-12-16T06:22:47.654112",
        "meta_mean_motion": 1.86230757,
        "meta_eccentricity": 0.00113185,
        "meta_inclination": 56.3814,
        "meta_ra_of_asc_node": 68.9504,
        "meta_arg_of_pericenter": 343.5807,
        "meta_mean_anomaly": 16.4038,
        "meta_ephemeris_type": 0,
        "meta_classification_type": "U",
        "meta_norad_cat_id": 38775,
        "meta_element_set_no": 999,
        "meta_rev_at_epoch": 8990,
        "meta_bstar": 0,
        "meta_mean_motion_dot": -8e-07,
        "meta_mean_motion_ddot": 0,
        "tle_line1": "1 38775U 12050B   25350.26582933 -.00000080  00000+0  00000+0 0  9998",
        "tle_line2": "2 38775  56.3814  68.9504 0011318 343.5807  16.4038  1.86230757 89902"
      },
      "geometry": {
        "type": "Point",
        "coordinates": [
          43.063772316548395,
          -33.27952106284154
        ]
      }
    },
    {
      "type": "Feature",
      "properties": {
        "norad_id": 38953,
        "name": "BEIDOU-2 G6 (C02)",
        "group": "beidou",
        "lat": 1.932755356219066,
        "lon": 104.21839776613767,
        "alt_km": 35790.77738045173,
        "timestamp": "2025-12-17T19:34:08.303658+00:00",
        "meta_object_name": "BEIDOU-2 G6 (C02)",
        "meta_object_id": "2012-059A",
        "meta_epoch": "2025-12-16T20:36:20.086848",
        "meta_mean_motion": 1.00269484,
        "meta_eccentricity": 0.00080985,
        "meta_inclination": 3.9596,
        "meta_ra_of_asc_node": 75.466,
        "meta_arg_of_pericenter": 291.412,
        "meta_mean_anomaly": 111.9285,
        "meta_ephemeris_type": 0,
        "meta_classification_type": "U",
        "meta_norad_cat_id": 38953,
        "meta_element_set_no": 999,
        "meta_rev_at_epoch": 4808,
        "meta_bstar": 0,
        "meta_mean_motion_dot": -1.53e-06,
        "meta_mean_motion_ddot": 0,
        "tle_line1": "1 38953U 12059A   25350.85856582 -.00000153  00000+0  00000+0 0  9995",
        "tle_line2": "2 38953   3.9596  75.4660 0008098 291.4120 111.9285  1.00269484 48085"
      },
      "geometry": {
        "type": "Point",
        "coordinates": [
          104.21839776613767,
          1.932755356219066
        ]
      }
    },
    {
      "type": "Feature",
      "properties": {
        "norad_id": 40549,
        "name": "BEIDOU-3S IGSO-1S (C31)",
        "group": "beidou",
        "lat": 2.3885068556810873,
        "lon": 115.56895834012789,
        "alt_km": 35634.105800665115,
        "timestamp": "2025-12-17T19:34:08.303669+00:00",
        "meta_object_name": "BEIDOU-3S IGSO-1S (C31)",
        "meta_object_id": "2015-019A",
        "meta_epoch": "2025-12-16T22:00:09.125856",
        "meta_mean_motion": 1.00292577,
        "meta_eccentricity": 0.00363578,
        "meta_inclination": 49.5427,
        "meta_ra_of_asc_node": 297.6612,
        "meta_arg_of_pericenter": 193.8033,
        "meta_mean_anomaly": 18.6613,
        "meta_ephemeris_type": 0,
        "meta_classification_type": "U",
        "meta_norad_cat_id": 40549,
        "meta_element_set_no": 999,
        "meta_rev_at_epoch": 3924,
        "meta_bstar": 0,
        "meta_mean_motion_dot": -1.91e-06,
        "meta_mean_motion_ddot": 0,
        "tle_line1": "1 40549U 15019A   25350.91677229 -.00000191  00000+0  00000+0 0  9996",
        "tle_line2": "2 40549  49.5427 297.6612 0036357 193.8033  18.6613  1.00292577 39245"
      },
      "geometry": {
        "type": "Point",
        "coordinates": [
          115.56895834012789,
          2.3885068556810873
        ]
      }
    },
    {
      "type": "Feature",
      "properties": {
        "norad_id": 40748,
        "name": "BEIDOU-3S M2S (C58)",
        "group": "beidou",
        "lat": -10.172738410916999,
        "lon": -58.942121179162605,
        "alt_km": 21523.522807381978,
        "timestamp": "2025-12-17T19:34:08.303681+00:00",
        "meta_object_name": "BEIDOU-3S M2S (C58)",
        "meta_object_id": "2015-037A",
        "meta_epoch": "2025-12-11T22:15:26.437248",
        "meta_mean_motion": 1.8622897,
        "meta_eccentricity": 0.00123447,
        "meta_inclination": 55.0397,
        "meta_ra_of_asc_node": 308.4912,
        "meta_arg_of_pericenter": 267.8245,
        "meta_mean_anomaly": 92.025,
        "meta_ephemeris_type": 0,
        "meta_classification_type": "U",
        "meta_norad_cat_id": 40748,
        "meta_element_set_no": 999,
        "meta_rev_at_epoch": 7063,
        "meta_bstar": 0,
        "meta_mean_motion_dot": -8.9e-07,
        "meta_mean_motion_ddot": 0,
        "tle_line1": "1 40748U 15037A   25345.92738932 -.00000089  00000+0  00000+0 0  9997",
        "tle_line2": "2 40748  55.0397 308.4912 0012344 267.8245  92.0250  1.86228970 70636"
      },
      "geometry": {
        "type": "Point",
        "coordinates": [
          -58.942121179162605,
          -10.172738410916999
        ]
      }
    },
    {
      "type": "Feature",
      "properties": {
        "norad_id": 40749,
        "name": "BEIDOU-3S M1S (C57)",
        "group": "beidou",
        "lat": -11.212011832348162,
        "lon": 136.22333490466255,
        "alt_km": 21536.708434877622,
        "timestamp": "2025-12-17T19:34:08.303692+00:00",
        "meta_object_name": "BEIDOU-3S M1S (C57)",
        "meta_object_id": "2015-037B",
        "meta_epoch": "2025-12-11T14:53:54.000096",
        "meta_mean_motion": 1.86253918,
        "meta_eccentricity": 0.00034406,
        "meta_inclination": 55.0364,
        "meta_ra_of_asc_node": 308.4915,
        "meta_arg_of_pericenter": 358.1692,
        "meta_mean_anomaly": 1.8205,
        "meta_ephemeris_type": 0,
        "meta_classification_type": "U",
        "meta_norad_cat_id": 40749,
        "meta_element_set_no": 999,
        "meta_rev_at_epoch": 7063,
        "meta_bstar": 0,
        "meta_mean_motion_dot": -8.8e-07,
        "meta_mean_motion_ddot": 0,
        "tle_line1": "1 40749U 15037B   25345.62076389 -.00000088  00000+0  00000+0 0  9995",
        "tle_line2": "2 40749  55.0364 308.4915 0003440 358.1692   1.8205  1.86253918 70639"
      },
      "geometry": {
        "type": "Point",
        "coordinates": [
          136.22333490466255,
          -11.212011832348162
        ]
      }
    }
  ]
}